GLOBALSTAR M045         
1 25676U 99019A   25350.71809435 -.00000079  00000+0  13177-3 0  9994
2 25676  51.9943 145.0124 0000996 116.3723 257.2127 12.27070599215807
GLOBALSTAR M019         
1 25677U 99019B   25350.98811753  .00000024  00000+0  11895-2 0  9993
2 25677  51.9888 287.4754 0001674 353.4340  84.6511 12.13877127207345
GLOBALSTAR M044         
1 25678U 99019C   25350.92025965 -.00000045  00000+0  53360-3 0  9998
2 25678  51.9972 261.8841 0006867  33.8103  44.9122 11.90261715193084
GLOBALSTAR M042         
1 25679U 99019D   25351.01457503 -.00000061  00000+0  29684-3 0  9997
2 25679  52.0011 254.8245 0002971 334.8326  38.7748 12.22094234207610
GLOBALSTAR M025         
1 25770U 99031A   25350.58966863 -.00000077  00000+0 -29617-3 0  9992
2 25770  51.9818  96.7198 0002992  98.0246 359.9046 11.22558921502195
GLOBALSTAR M049         
1 25771U 99031B   25350.89810431 -.00000123  00000+0 -20087-2 0  9999
2 25771  51.9845 139.9508 0002215 345.0232  15.0499 11.12123536137756
GLOBALSTAR M047         
1 25772U 99031C   25350.68090577 -.00000082  00000+0 -33702-3 0  9991
2 25772  51.9817 119.9766 0016164 212.3394 147.6422 11.31931756491778
GLOBALSTAR M052         
1 25773U 99031D   25351.00029375 -.00000061  00000+0  16825-3 0  9990
2 25773  51.9857 245.8257 0003337  98.4950 274.3604 11.15062336498909
